     2.11           N: GPS NAV DATA                         RINEX VERSION / TYPE
teqc  2019Feb25                         20221121 12:25:28UTCPGM / RUN BY / DATE
OSX ker:10.11.6|Core i5|gcc 4.3 -m64|OSX ker:10.10+|=+      COMMENT
    4.6566D-09  1.4901D-08 -5.9605D-08 -5.9605D-08          ION ALPHA
    7.9872D+04  6.5536D+04 -6.5536D+04 -3.9322D+05          ION BETA
   -4.656612873077D-09-1.598721155460D-14   405504     1541 DELTA-UTC: A0,A1,T,W
                                                            END OF HEADER
11 09  7 22 14  0  0.0-1.170206815004D-05-1.591615728103D-12 0.000000000000D+00
    2.000000000000D+01 2.831250000000D+01 6.702779197658D-09 1.415645762848D+00
    1.426786184311D-06 9.527502581477D-03 4.244968295097D-06 5.153683311462D+03
    3.096000000000D+05-1.303851604462D-07-1.615858870345D+00 1.322478055954D-07
    8.887647379216D-01 2.590000000000D+02 7.056481981084D-01-9.303958975808D-09
    2.732256666600D-10 1.000000000000D+00 1.541000000000D+03 0.000000000000D+00
    2.000000000000D+00 0.000000000000D+00-1.164153218269D-08 2.000000000000D+01
    3.034320000000D+05 4.000000000000D+00
17 09  7 22 14  0  0.0 7.207645103335D-05 2.501110429876D-12 0.000000000000D+00
    1.050000000000D+02 1.425000000000D+01 4.224461680071D-09-1.969099135214D+00
    8.139759302139D-07 4.575230181217D-03 1.143477857113D-05 5.153711278915D+03
    3.096000000000D+05-1.583248376846D-07-2.428588170457D+00-1.043081283569D-07
    9.599003291188D-01 1.604062500000D+02-2.633582909082D+00-7.676391181076D-09
    7.153869415948D-10 1.000000000000D+00 1.541000000000D+03 0.000000000000D+00
    2.000000000000D+00 0.000000000000D+00-1.024454832077D-08 1.050000000000D+02
    3.037020000000D+05 4.000000000000D+00
12 09  7 22 14  0  0.0-2.465690486133D-04 6.139089236967D-12 0.000000000000D+00
    9.000000000000D+00-1.671250000000D+02 4.179816963297D-09 1.572407201483D+00
   -8.601695299149D-06 3.226858447306D-03 8.955597877502D-06 5.153623826981D+03
    3.096000000000D+05 7.636845111847D-08 2.795622174325D+00 7.264316082001D-08
    9.679135682281D-01 2.061250000000D+02-6.315420508099D-01-7.954259898281D-09
   -4.482329564161D-10 1.000000000000D+00 1.541000000000D+03 0.000000000000D+00
    2.000000000000D+00 0.000000000000D+00-1.164153218269D-08 9.000000000000D+00
    3.043320000000D+05 4.000000000000D+00
14 09  7 22 13 59 44.0-7.628230378032D-05 5.570655048359D-12 0.000000000000D+00
    0.000000000000D+00 1.595312500000D+02 3.851589005571D-09-2.479821839356D+00
    8.292496204376D-06 4.656432196498D-03 9.514391422272D-06 5.153633104324D+03
    3.095840000000D+05 1.639127731323D-07 7.342749140918D-01-3.911554813385D-08
    9.883029670141D-01 2.084687500000D+02-2.168106738234D+00-7.759966090878D-09
    3.760870941085D-10 1.000000000000D+00 1.541000000000D+03 0.000000000000D+00
    2.000000000000D+00 0.000000000000D+00-9.313225746155D-09 0.000000000000D+00
    3.045060000000D+05 4.000000000000D+00
30 09  7 22 14  0  0.0 1.629046164453D-04 2.842170943040D-12 0.000000000000D+00
    1.400000000000D+01-1.669375000000D+02 4.675194740627D-09-9.276482578277D-01
   -8.614733815193D-06 1.168395031709D-02 8.396804332733D-06 5.153573989868D+03
    3.096000000000D+05-1.378357410431D-07 2.746980260834D+00 1.657754182816D-07
    9.529729146213D-01 2.108125000000D+02 1.428810110602D+00-8.420707899141D-09
   -4.464471677451D-10 1.000000000000D+00 1.541000000000D+03 0.000000000000D+00
    2.000000000000D+00 0.000000000000D+00-8.381903171539D-09 1.400000000000D+01
    3.072720000000D+05 4.000000000000D+00
32 09  7 22 14  0  0.0 2.278680913150D-04-6.139089236967D-12 0.000000000000D+00
    1.090000000000D+02-4.156250000000D+00 4.331609000330D-09 2.328537810318D+00
   -3.594905138016D-07 1.321220840327D-02 1.191347837448D-05 5.153770366669D+03
    3.096000000000D+05 1.378357410431D-07-2.665688479368D-01 5.587935447693D-08
    9.634950933466D-01 1.520937500000D+02-1.140931242217D+00-7.576029857767D-09
   -6.150256182857D-10 1.000000000000D+00 1.541000000000D+03 0.000000000000D+00
    2.000000000000D+00 0.000000000000D+00-3.259629011154D-09 1.090000000000D+02
    3.078420000000D+05 4.000000000000D+00
22 09  7 22 13 59 44.0 1.949812285602D-04-6.821210263297D-13 0.000000000000D+00
    0.000000000000D+00-3.906250000000D+00 4.938062832995D-09-1.672025305902D+00
   -9.872019290924D-08 5.192421376705D-03 1.153163611889D-05 5.153657270432D+03
    3.095840000000D+05 7.636845111847D-08-3.178289064154D-01 3.166496753693D-08
    9.394370558956D-01 1.421562500000D+02-1.899015118791D+00-8.050335328780D-09
   -5.668093241692D-10 1.000000000000D+00 1.541000000000D+03 0.000000000000D+00
    2.000000000000D+00 0.000000000000D+00-1.769512891769D-08 0.000000000000D+00
    3.079860000000D+05 4.000000000000D+00
 9 09  7 22 16  0  0.0 6.791157647967D-05 2.046363078989D-12 0.000000000000D+00
    5.500000000000D+01 4.843750000000D+00 4.686980945855D-09 1.679978803826D+00
   -3.073364496231D-07 2.075956121553D-02-4.675239324570D-07 5.153628660202D+03
    3.168000000000D+05 6.705522537231D-08 1.709280246886D+00-5.662441253662D-07
    9.766992851370D-01 3.961250000000D+02 1.495908347799D+00-8.417493479533D-09
    3.285851154604D-11 1.000000000000D+00 1.541000000000D+03 0.000000000000D+00
    2.000000000000D+00 0.000000000000D+00-5.587935447693D-09 5.500000000000D+01
    3.096180000000D+05 4.000000000000D+00
26 09  7 22 16  0  0.0 6.477581337094D-05 1.136868377216D-13 0.000000000000D+00
    1.560000000000D+02 1.692187500000D+02 3.671224349802D-09 2.396789779321D+00
    8.458271622658D-06 2.025781257544D-02 8.836388587952D-06 5.154915388107D+03
    3.168000000000D+05 8.009374141693D-08 7.515783515580D-01-3.296881914139D-07
    9.926462537580D-01 2.237187500000D+02 1.026391467016D+00-7.404951303087D-09
    4.071598169835D-10 1.000000000000D+00 1.541000000000D+03 0.000000000000D+00
    2.800000000000D+00 0.000000000000D+00-6.519258022308D-09 1.560000000000D+02
    3.096180000000D+05 4.000000000000D+00
22 09  7 22 15 59 44.0 1.949761062860D-04-6.821210263297D-13 0.000000000000D+00
    1.000000000000D+00 1.468750000000D+00 4.880917595524D-09-6.216792355955D-01
    1.192092895508D-07 5.193084245548D-03 1.154094934464D-05 5.153659149170D+03
    3.167840000000D+05-1.862645149231D-08-3.178872578288D-01 4.470348358154D-08
    9.394325471821D-01 1.484375000000D+02-1.899167607520D+00-8.143553497405D-09
   -5.682379551060D-10 1.000000000000D+00 1.541000000000D+03 0.000000000000D+00
    2.000000000000D+00 0.000000000000D+00-1.769512891769D-08 1.000000000000D+00
    3.096180000000D+05 4.000000000000D+00
27 09  7 22 16  0  0.0 6.778351962566D-05 3.183231456205D-12 0.000000000000D+00
    1.370000000000D+02 1.621875000000D+01 4.833772774610D-09-1.266849177308D+00
    1.426786184311D-06 2.131202572491D-02 2.924352884293D-07 5.153758003235D+03
    3.168000000000D+05-2.086162567139D-07 1.685066233109D+00 4.265457391739D-07
    9.747437323204D-01 3.842812500000D+02-1.568817983178D+00-8.663932316129D-09
    5.821671067396D-11 1.000000000000D+00 1.541000000000D+03 0.000000000000D+00
    4.000000000000D+00 0.000000000000D+00-4.190951585770D-09 1.370000000000D+02
    3.096180000000D+05 4.000000000000D+00
14 09  7 22 15 59 44.0-7.624225690961D-05 5.570655048359D-12 0.000000000000D+00
    4.300000000000D+01 1.665937500000D+02 3.870161207749D-09-1.429842390949D+00
    8.720904588699D-06 4.657032666728D-03 9.259209036827D-06 5.153630893707D+03
    3.167840000000D+05 9.499490261078D-08 7.342189296798D-01 5.029141902924D-08
    9.883059703849D-01 2.141562500000D+02-2.167884200599D+00-7.754965882600D-09
    4.239462304908D-10 1.000000000000D+00 1.541000000000D+03 0.000000000000D+00
    2.000000000000D+00 0.000000000000D+00-9.313225746155D-09 4.300000000000D+01
    3.096180000000D+05 4.000000000000D+00
12 09  7 22 16  0  0.0-2.465248107910D-04 6.139089236967D-12 0.000000000000D+00
    3.000000000000D+01-1.561875000000D+02 4.185888644778D-09 2.622279172225D+00
   -8.028000593185D-06 3.226989181712D-03 9.329989552498D-06 5.153625461578D+03
    3.168000000000D+05 2.048909664154D-08 2.795564804530D+00 1.266598701477D-07
    9.679103819925D-01 2.019375000000D+02-6.312063228141D-01-7.938544957976D-09
   -4.153744448700D-10 1.000000000000D+00 1.541000000000D+03 0.000000000000D+00
    2.000000000000D+00 0.000000000000D+00-1.164153218269D-08 3.000000000000D+01
    3.096180000000D+05 4.000000000000D+00
30 09  7 22 16  0  0.0 1.629251055419D-04 2.842170943040D-12 0.000000000000D+00
    2.200000000000D+01-1.540625000000D+02 4.664122850867D-09 1.226686726140D-01
   -7.895752787590D-06 1.168560329825D-02 8.726492524147D-06 5.153577554703D+03
    3.168000000000D+05-1.341104507446D-07 2.746919407831D+00 7.078051567078D-08
    9.529697049791D-01 2.068125000000D+02 1.428734839078D+00-8.449280517877D-09
   -4.521616914922D-10 1.000000000000D+00 1.541000000000D+03 0.000000000000D+00
    2.000000000000D+00 0.000000000000D+00-8.381903171539D-09 2.200000000000D+01
    3.096180000000D+05 4.000000000000D+00
32 09  7 22 16  0  0.0 2.278238534927D-04-6.139089236967D-12 0.000000000000D+00
    1.100000000000D+02-1.531250000000D+00 4.165173496195D-09-2.904572654493D+00
   -1.192092895508D-07 1.321139046922D-02 1.184083521366D-05 5.153772094727D+03
    3.168000000000D+05 6.146728992462D-08-2.666237073648D-01 1.247972249985D-07
    9.634909123267D-01 1.437500000000D+02-1.140886980168D+00-7.551743131842D-09
   -5.450227023832D-10 1.000000000000D+00 1.541000000000D+03 0.000000000000D+00
    2.800000000000D+00 0.000000000000D+00-3.259629011154D-09 1.100000000000D+02
    3.096180000000D+05 4.000000000000D+00
